{
    "sweeps": [
        {
            "name": "Planet Nine",
            "mass": 1.7494688500000002e-05,
            "semi_major_axis": 568.975,
            "inclination": 0.22427480888127133,
            "eccentricity": 0.35,
            "argument_of_perihelion": 2.6851890541932755,
            "longitude_of_ascending_node": 1.6353735091186867,
            "mean_anomaly": 0
        },
        {
            "name": "Planet Nine",
            "mass": 2.2225012000000004e-05,
            "semi_major_axis": 604.2375,
            "inclination": 0.20114919629234645,
            "eccentricity": 0.3,
            "argument_of_perihelion": 2.7133324883816843,
            "longitude_of_ascending_node": 1.4206980111233842,
            "mean_anomaly": 0
        },
        {
            "name": "Planet Nine",
            "mass": 2.0648237500000003e-05,
            "semi_major_axis": 463.1875,
            "inclination": 0.27052603405912107,
            "eccentricity": 0.25,
            "argument_of_perihelion": 2.7661286982545126,
            "longitude_of_ascending_node": 1.4922565104551517,
            "mean_anomaly": 0
        },
        {
            "name": "Planet Nine",
            "mass": 2.6955335500000003e-05,
            "semi_major_axis": 427.92499999999995,
            "inclination": 0.3399028718258957,
            "eccentricity": 0.19999999999999998,
            "argument_of_perihelion": 2.3461588469933767,
            "longitude_of_ascending_node": 1.8500490071139895,
            "mean_anomaly": 0
        },
        {
            "name": "Planet Nine",
            "mass": 1.5917914e-05,
            "semi_major_axis": 392.66249999999997,
            "inclination": 0.29365164664804594,
            "eccentricity": 0.325,
            "argument_of_perihelion": 2.6042494101320384,
            "longitude_of_ascending_node": 1.7784905077822217,
            "mean_anomaly": 0
        },
        {
            "name": "Planet Nine",
            "mass": 2.5378561000000005e-05,
            "semi_major_axis": 357.4,
            "inclination": 0.2474004214701962,
            "eccentricity": 0.22499999999999998,
            "argument_of_perihelion": 2.8811022627296388,
            "longitude_of_ascending_node": 1.5638150097869192,
            "mean_anomaly": 0
        },
        {
            "name": "Planet Nine",
            "mass": 1.9071463e-05,
            "semi_major_axis": 533.7125,
            "inclination": 0.3167772592369708,
            "eccentricity": 0.375,
            "argument_of_perihelion": 2.5854871206730987,
            "longitude_of_ascending_node": 1.921607506445757,
            "mean_anomaly": 0
        },
        {
            "name": "Planet Nine",
            "mass": 2.3801786500000003e-05,
            "semi_major_axis": 498.45,
            "inclination": 0.17802358370342158,
            "eccentricity": 0.275,
            "argument_of_perihelion": 2.3649211364523164,
            "longitude_of_ascending_node": 1.7069320084504542,
            "mean_anomaly": 0
        }
    ],
    "bodies": [
        {
            "name": "TNO-4399",
            "mass": 0,
            "semi_major_axis": 300.4298974108451,
            "eccentricity": 0.8429799706888129,
            "inclination": 0.18753550023261004,
            "longitude_of_ascending_node": 3.500861658629573,
            "argument_of_perihelion": 2.557516879748581,
            "mean_anomaly": 5.881505882924943
        },
        {
            "name": "TNO-4400",
            "mass": 0,
            "semi_major_axis": 300.4640937957987,
            "eccentricity": 0.842989741084514,
            "inclination": 0.18757813162616144,
            "longitude_of_ascending_node": 0.47256995683575714,
            "argument_of_perihelion": 5.155008607673577,
            "mean_anomaly": 3.8228442397661007
        },
        {
            "name": "TNO-4401",
            "mass": 0,
            "semi_major_axis": 300.4982901807523,
            "eccentricity": 0.842999511480215,
            "inclination": 0.18762076301971284,
            "longitude_of_ascending_node": 2.489562422632685,
            "argument_of_perihelion": 4.475433364390427,
            "mean_anomaly": 6.118199610482084
        },
        {
            "name": "TNO-4402",
            "mass": 0,
            "semi_major_axis": 300.5324865657059,
            "eccentricity": 0.8430092818759161,
            "inclination": 0.18766339441326424,
            "longitude_of_ascending_node": 2.5638144870249366,
            "argument_of_perihelion": 2.5778508540774654,
            "mean_anomaly": 3.3577285175368945
        },
        {
            "name": "TNO-4403",
            "mass": 0,
            "semi_major_axis": 300.56668295065947,
            "eccentricity": 0.843019052271617,
            "inclination": 0.18770602580681564,
            "longitude_of_ascending_node": 4.275897896229228,
            "argument_of_perihelion": 4.016390960584288,
            "mean_anomaly": 4.549924021416665
        },
        {
            "name": "TNO-4404",
            "mass": 0,
            "semi_major_axis": 300.60087933561306,
            "eccentricity": 0.843028822667318,
            "inclination": 0.18774865720036704,
            "longitude_of_ascending_node": 3.5724862624849614,
            "argument_of_perihelion": 1.2906004194932104,
            "mean_anomaly": 2.419448360989804
        },
        {
            "name": "TNO-4405",
            "mass": 0,
            "semi_major_axis": 300.63507572056665,
            "eccentricity": 0.8430385930630191,
            "inclination": 0.18779128859391844,
            "longitude_of_ascending_node": 1.7348714547424615,
            "argument_of_perihelion": 0.769846765656318,
            "mean_anomaly": 1.6686169250830967
        },
        {
            "name": "TNO-4406",
            "mass": 0,
            "semi_major_axis": 300.66927210552024,
            "eccentricity": 0.8430483634587201,
            "inclination": 0.18783391998746984,
            "longitude_of_ascending_node": 3.9189396896210527,
            "argument_of_perihelion": 5.252022508960026,
            "mean_anomaly": 1.5293327384195328
        },
        {
            "name": "TNO-4407",
            "mass": 0,
            "semi_major_axis": 300.7034684904738,
            "eccentricity": 0.8430581338544212,
            "inclination": 0.18787655138102125,
            "longitude_of_ascending_node": 3.018276742428696,
            "argument_of_perihelion": 4.768498809529563,
            "mean_anomaly": 5.11439732300988
        },
        {
            "name": "TNO-4408",
            "mass": 0,
            "semi_major_axis": 300.7376648754274,
            "eccentricity": 0.8430679042501221,
            "inclination": 0.18791918277457265,
            "longitude_of_ascending_node": 5.943007855942666,
            "argument_of_perihelion": 3.041328886278903,
            "mean_anomaly": 3.9877056684713006
        },
        {
            "name": "TNO-4409",
            "mass": 0,
            "semi_major_axis": 300.771861260381,
            "eccentricity": 0.8430776746458232,
            "inclination": 0.18796181416812405,
            "longitude_of_ascending_node": 2.8562148740879545,
            "argument_of_perihelion": 0.17129889091294662,
            "mean_anomaly": 0.821184312437302
        },
        {
            "name": "TNO-4410",
            "mass": 0,
            "semi_major_axis": 300.8060576453346,
            "eccentricity": 0.8430874450415242,
            "inclination": 0.18800444556167545,
            "longitude_of_ascending_node": 5.555966495465803,
            "argument_of_perihelion": 5.473056094744251,
            "mean_anomaly": 5.478663050777081
        },
        {
            "name": "TNO-4411",
            "mass": 0,
            "semi_major_axis": 300.84025403028824,
            "eccentricity": 0.8430972154372253,
            "inclination": 0.18804707695522685,
            "longitude_of_ascending_node": 1.425295404891989,
            "argument_of_perihelion": 5.868723413756065,
            "mean_anomaly": 2.0630512397405076
        },
        {
            "name": "TNO-4412",
            "mass": 0,
            "semi_major_axis": 300.8744504152418,
            "eccentricity": 0.8431069858329263,
            "inclination": 0.18808970834877825,
            "longitude_of_ascending_node": 4.427008311113743,
            "argument_of_perihelion": 4.809468004479106,
            "mean_anomaly": 5.2489786483093255
        },
        {
            "name": "TNO-4413",
            "mass": 0,
            "semi_major_axis": 300.9086468001954,
            "eccentricity": 0.8431167562286273,
            "inclination": 0.18813233974232965,
            "longitude_of_ascending_node": 2.226982780408316,
            "argument_of_perihelion": 3.4588631406046506,
            "mean_anomaly": 4.622503854987598
        },
        {
            "name": "TNO-4414",
            "mass": 0,
            "semi_major_axis": 300.942843185149,
            "eccentricity": 0.8431265266243283,
            "inclination": 0.18817497113588105,
            "longitude_of_ascending_node": 1.905963494565141,
            "argument_of_perihelion": 3.95605573905879,
            "mean_anomaly": 6.097212794679075
        },
        {
            "name": "TNO-4415",
            "mass": 0,
            "semi_major_axis": 300.9770395701026,
            "eccentricity": 0.8431362970200293,
            "inclination": 0.18821760252943245,
            "longitude_of_ascending_node": 4.918445023654466,
            "argument_of_perihelion": 0.37123148047270843,
            "mean_anomaly": 5.105954111196299
        }
    ]
}